[{"OBJECT_NAME":"STARLINK-1595","OBJECT_ID":"2020-057AU","EPOCH":"2026-03-09T22:28:07.003488","MEAN_MOTION":15.50215839,"ECCENTRICITY":0.00065785,"INCLINATION":53.0492,"RA_OF_ASC_NODE":295.4863,"ARG_OF_PERICENTER":121.0092,"MEAN_ANOMALY":239.1563,"EPHEMERIS_TYPE":0,"CLASSIFICATION_TYPE":"U","NORAD_CAT_ID":46159,"ELEMENT_SET_NO":999,"REV_AT_EPOCH":30764,"BSTAR":0.0019946424,"MEAN_MOTION_DOT":0.00115887,"MEAN_MOTION_DDOT":0},{"OBJECT_NAME":"STARLINK-1893","OBJECT_ID":"2020-074AZ","EPOCH":"2026-03-10T00:00:02.999808","MEAN_MOTION":15.48803791,"ECCENTRICITY":0.00021326,"INCLINATION":53.0504,"RA_OF_ASC_NODE":262.7095,"ARG_OF_PERICENTER":48.1407,"MEAN_ANOMALY":339.7407,"EPHEMERIS_TYPE":0,"CLASSIFICATION_TYPE":"U","NORAD_CAT_ID":46786,"ELEMENT_SET_NO":999,"REV_AT_EPOCH":590,"BSTAR":0.0029021764,"MEAN_MOTION_DOT":0.00161462,"MEAN_MOTION_DDOT":0}]
